ORBCOMM FM37            
1 33064U 08031E   24356.56046317  .00003357  00000+0  48326-3 0  9993
2 33064  48.4390 107.3498 0006222 321.3397 106.9544 14.78484102887751
ORBCOMM FM40            
1 33065U 08031F   24356.80633788  .00004594  00000+0  62242-3 0  9992
2 33065  48.4414  92.9727 0007485 334.0361 171.8985 14.80377006888306
VESSELSAT 1             
1 37840U 11058C   24356.63633384  .00000460  00000+0  10637-3 0  9992
2 37840  19.9620  88.1912 0013780  33.9508 326.1777 14.11280970681424
ORBCOMM FM109           
1 40086U 14040A   24356.82662256  .00002103  00000+0  49501-3 0  9991
2 40086  47.0016 133.5921 0002623 247.1990 112.8619 14.57504336555301
ORBCOMM FM107           
1 40087U 14040B   24356.52117846  .00001476  00000+0  35739-3 0  9999
2 40087  47.0042 136.0675 0001982 212.4837 147.5926 14.57644022555254
ORBCOMM FM106           
1 40088U 14040C   24356.31616502  .00002493  00000+0  45630-3 0  9991
2 40088  47.0610 333.2155 0018059 320.5038  39.4536 14.68529167557327
ORBCOMM FM111           
1 40089U 14040D   24356.59447686  .00004120  00000+0  50515-3 0  9994
2 40089  47.0006 205.4411 0030210  64.5128 295.8888 14.84453039563822
ORBCOMM FM104           
1 40090U 14040E   24356.86689633  .00001478  00000+0  36961-3 0  9998
2 40090  47.0034 165.9501 0016258 117.2847 242.9696 14.56093792554875
